{
  "type": "FeatureCollection",
  "features": [
    {
      "type": "Feature",
      "properties": {
        "norad_id": 30883,
        "name": "FENGYUN 1C DEB",
        "group": "fengyun-1c-debris",
        "lat": 21.408534192876193,
        "lon": 19.24115972255026,
        "alt_km": 921.0155375102559,
        "timestamp": "2025-12-11T08:58:27.402991+00:00",
        "meta_object_name": "FENGYUN 1C DEB",
        "meta_object_id": "1999-025AXV",
        "meta_epoch": "2025-12-08T09:39:11.997216",
        "meta_mean_motion": 14.14544388,
        "meta_eccentricity": 0.01116431,
        "meta_inclination": 98.3623,
        "meta_ra_of_asc_node": 19.7631,
        "meta_arg_of_pericenter": 226.477,
        "meta_mean_anomaly": 150.4699,
        "meta_ephemeris_type": 0,
        "meta_classification_type": "U",
        "meta_norad_cat_id": 30883,
        "meta_element_set_no": 999,
        "meta_rev_at_epoch": 96856,
        "meta_bstar": 0.00035441488,
        "meta_mean_motion_dot": 6.81e-06,
        "meta_mean_motion_ddot": 0,
        "tle_line1": "1 30883U 99025AXV 25342.40222219  .00000681  00000+0  35441-3 0  9999",
        "tle_line2": "2 30883  98.3623  19.7631 0111643 226.4770 150.4699 14.14544388968566"
      },
      "geometry": {
        "type": "Point",
        "coordinates": [
          19.24115972255026,
          21.408534192876193
        ]
      }
    },
    {
      "type": "Feature",
      "properties": {
        "norad_id": 30884,
        "name": "FENGYUN 1C DEB",
        "group": "fengyun-1c-debris",
        "lat": 46.38867095986117,
        "lon": -30.381078564639523,
        "alt_km": 627.37809748583,
        "timestamp": "2025-12-11T08:58:27.403005+00:00",
        "meta_object_name": "FENGYUN 1C DEB",
        "meta_object_id": "1999-025AXW",
        "meta_epoch": "2025-12-09T11:07:37.314048",
        "meta_mean_motion": 14.73332771,
        "meta_eccentricity": 0.00673714,
        "meta_inclination": 98.8907,
        "meta_ra_of_asc_node": 336.9851,
        "meta_arg_of_pericenter": 346.1354,
        "meta_mean_anomaly": 13.7999,
        "meta_ephemeris_type": 0,
        "meta_classification_type": "U",
        "meta_norad_cat_id": 30884,
        "meta_element_set_no": 999,
        "meta_rev_at_epoch": 98613,
        "meta_bstar": 0.0032347053,
        "meta_mean_motion_dot": 0.00021706,
        "meta_mean_motion_ddot": 0,
        "tle_line1": "1 30884U 99025AXW 25343.46362632  .00021706  00000+0  32347-2 0  9993",
        "tle_line2": "2 30884  98.8907 336.9851 0067371 346.1354  13.7999 14.73332771986134"
      },
      "geometry": {
        "type": "Point",
        "coordinates": [
          -30.381078564639523,
          46.38867095986117
        ]
      }
    },
    {
      "type": "Feature",
      "properties": {
        "norad_id": 30885,
        "name": "FENGYUN 1C DEB",
        "group": "fengyun-1c-debris",
        "lat": -27.14164725788594,
        "lon": 1.1313544132820235,
        "alt_km": 696.5567719860965,
        "timestamp": "2025-12-11T08:58:27.403017+00:00",
        "meta_object_name": "FENGYUN 1C DEB",
        "meta_object_id": "1999-025AXX",
        "meta_epoch": "2025-12-10T07:59:49.960896",
        "meta_mean_motion": 14.49349742,
        "meta_eccentricity": 0.0053899,
        "meta_inclination": 99.0266,
        "meta_ra_of_asc_node": 184.6927,
        "meta_arg_of_pericenter": 226.5434,
        "meta_mean_anomaly": 314.0032,
        "meta_ephemeris_type": 0,
        "meta_classification_type": "U",
        "meta_norad_cat_id": 30885,
        "meta_element_set_no": 999,
        "meta_rev_at_epoch": 96942,
        "meta_bstar": 0.0040885,
        "meta_mean_motion_dot": 0.00015893,
        "meta_mean_motion_ddot": 0,
        "tle_line1": "1 30885U 99025AXX 25344.33321714  .00015893  00000+0  40885-2 0  9993",
        "tle_line2": "2 30885  99.0266 184.6927 0053899 226.5434 314.0032 14.49349742969425"
      },
      "geometry": {
        "type": "Point",
        "coordinates": [
          1.1313544132820235,
          -27.14164725788594
        ]
      }
    },
    {
      "type": "Feature",
      "properties": {
        "norad_id": 30886,
        "name": "FENGYUN 1C DEB",
        "group": "fengyun-1c-debris",
        "lat": -49.659167163104854,
        "lon": 47.27747574418468,
        "alt_km": 848.27626868484,
        "timestamp": "2025-12-11T08:58:27.403028+00:00",
        "meta_object_name": "FENGYUN 1C DEB",
        "meta_object_id": "1999-025AXY",
        "meta_epoch": "2025-12-10T23:27:22.061088",
        "meta_mean_motion": 14.22760362,
        "meta_eccentricity": 0.0036202,
        "meta_inclination": 99.2087,
        "meta_ra_of_asc_node": 237.875,
        "meta_arg_of_pericenter": 39.1251,
        "meta_mean_anomaly": 321.2533,
        "meta_ephemeris_type": 0,
        "meta_classification_type": "U",
        "meta_norad_cat_id": 30886,
        "meta_element_set_no": 999,
        "meta_rev_at_epoch": 96371,
        "meta_bstar": 0.0026837,
        "meta_mean_motion_dot": 6.014e-05,
        "meta_mean_motion_ddot": 0,
        "tle_line1": "1 30886U 99025AXY 25344.97733867  .00006014  00000+0  26837-2 0  9996",
        "tle_line2": "2 30886  99.2087 237.8750 0036202  39.1251 321.2533 14.22760362963716"
      },
      "geometry": {
        "type": "Point",
        "coordinates": [
          47.27747574418468,
          -49.659167163104854
        ]
      }
    },
    {
      "type": "Feature",
      "properties": {
        "norad_id": 30887,
        "name": "FENGYUN 1C DEB",
        "group": "fengyun-1c-debris",
        "lat": 81.5184923705747,
        "lon": -57.92260742325076,
        "alt_km": 910.3503036244001,
        "timestamp": "2025-12-11T08:58:27.403038+00:00",
        "meta_object_name": "FENGYUN 1C DEB",
        "meta_object_id": "1999-025AXZ",
        "meta_epoch": "2025-12-10T14:15:44.587584",
        "meta_mean_motion": 14.44795187,
        "meta_eccentricity": 0.0263735,
        "meta_inclination": 98.369,
        "meta_ra_of_asc_node": 40.4903,
        "meta_arg_of_pericenter": 294.3463,
        "meta_mean_anomaly": 63.0402,
        "meta_ephemeris_type": 0,
        "meta_classification_type": "U",
        "meta_norad_cat_id": 30887,
        "meta_element_set_no": 999,
        "meta_rev_at_epoch": 98097,
        "meta_bstar": 0.00096076,
        "meta_mean_motion_dot": 5.068e-05,
        "meta_mean_motion_ddot": 0,
        "tle_line1": "1 30887U 99025AXZ 25344.59426606  .00005068  00000+0  96076-3 0  9996",
        "tle_line2": "2 30887  98.3690  40.4903 0263735 294.3463  63.0402 14.44795187980978"
      },
      "geometry": {
        "type": "Point",
        "coordinates": [
          -57.92260742325076,
          81.5184923705747
        ]
      }
    },
    {
      "type": "Feature",
      "properties": {
        "norad_id": 30888,
        "name": "FENGYUN 1C DEB",
        "group": "fengyun-1c-debris",
        "lat": 25.96605753657041,
        "lon": -40.769935721781444,
        "alt_km": 621.1228766376289,
        "timestamp": "2025-12-11T08:58:27.403048+00:00",
        "meta_object_name": "FENGYUN 1C DEB",
        "meta_object_id": "1999-025AYA",
        "meta_epoch": "2025-12-11T04:01:56.793216",
        "meta_mean_motion": 14.93828442,
        "meta_eccentricity": 0.0083382,
        "meta_inclination": 99.4836,
        "meta_ra_of_asc_node": 323.6514,
        "meta_arg_of_pericenter": 155.8232,
        "meta_mean_anomaly": 204.6931,
        "meta_ephemeris_type": 0,
        "meta_classification_type": "U",
        "meta_norad_cat_id": 30888,
        "meta_element_set_no": 999,
        "meta_rev_at_epoch": 99902,
        "meta_bstar": 0.001642,
        "meta_mean_motion_dot": 0.00018623,
        "meta_mean_motion_ddot": 0,
        "tle_line1": "1 30888U 99025AYA 25345.16801844  .00018623  00000+0  16420-2 0  9997",
        "tle_line2": "2 30888  99.4836 323.6514 0083382 155.8232 204.6931 14.93828442999021"
      },
      "geometry": {
        "type": "Point",
        "coordinates": [
          -40.769935721781444,
          25.96605753657041
        ]
      }
    },
    {
      "type": "Feature",
      "properties": {
        "norad_id": 30891,
        "name": "FENGYUN 1C DEB",
        "group": "fengyun-1c-debris",
        "lat": 16.920008430794525,
        "lon": 30.33878576328707,
        "alt_km": 913.9072739484063,
        "timestamp": "2025-12-11T08:58:27.403058+00:00",
        "meta_object_name": "FENGYUN 1C DEB",
        "meta_object_id": "1999-025AYD",
        "meta_epoch": "2025-12-11T02:11:59.735040",
        "meta_mean_motion": 14.05858967,
        "meta_eccentricity": 0.0055256,
        "meta_inclination": 98.7848,
        "meta_ra_of_asc_node": 32.7613,
        "meta_arg_of_pericenter": 192.292,
        "meta_mean_anomaly": 197.2313,
        "meta_ephemeris_type": 0,
        "meta_classification_type": "U",
        "meta_norad_cat_id": 30891,
        "meta_element_set_no": 999,
        "meta_rev_at_epoch": 95959,
        "meta_bstar": 0.0010135,
        "meta_mean_motion_dot": 1.638e-05,
        "meta_mean_motion_ddot": 0,
        "tle_line1": "1 30891U 99025AYD 25345.09166360  .00001638  00000+0  10135-2 0  9995",
        "tle_line2": "2 30891  98.7848  32.7613 0055256 192.2920 197.2313 14.05858967959593"
      },
      "geometry": {
        "type": "Point",
        "coordinates": [
          30.33878576328707,
          16.920008430794525
        ]
      }
    }
  ]
}